NORAD_CAT_ID,OBJECT_NAME,OBJECT_TYPE,EPOCH,MEAN_MOTION,ECCENTRICITY,INCLINATION,RA_OF_ASC_NODE,ARG_OF_PERICENTER,MEAN_ANOMALY,BSTAR,MEAN_MOTION_DOT,MEAN_MOTION_DDOT,TLE_LINE0,TLE_LINE1,TLE_LINE2,SEMIMAJOR_AXIS,PERIOD,APOGEE,PERIGEE,DECAYED
55951.0,STARLINK-5908,PAYLOAD,2024-03-18 22:36:20,14.98335231,0.0002779,69.9997,301.535,266.8509,93.2332,-6.0518e-05,-8.15e-06,0.0,0 STARLINK-5908,1 55951U 23037AP  24078.94189904 -.00000815  00000-0 -60518-4 0  9995,2 55951  69.9997 301.5350 0002779 266.8509  93.2332 14.98335231 56028,6950.177,96.107,573.973,570.11,0.0
55951.0,STARLINK-5908,PAYLOAD,2024-03-19 00:12:28,14.98335124,0.0002867,69.9995,301.3663,272.8087,87.2744,-6.7062e-05,-8.93e-06,0.0,0 STARLINK-5908,1 55951U 23037AP  24079.00865931 -.00000893  00000-0 -67062-4 0  9991,2 55951  69.9995 301.3663 0002867 272.8087  87.2744 14.98335124 56039,6950.177,96.107,574.035,570.049,0.0
55951.0,STARLINK-5908,PAYLOAD,2024-03-19 21:02:13,14.98309113,0.0002819,69.9993,299.1765,270.8803,89.2033,0.00039615,4.634e-05,0.0,0 STARLINK-5908,1 55951U 23037AP  24079.87654006  .00004634  00000-0  39615-3 0  9992,2 55951  69.9993 299.1765 0002819 270.8803  89.2033 14.98309113 56509,6950.257,96.108,574.082,570.163,0.0
55951.0,STARLINK-5908,PAYLOAD,2024-03-20 00:14:28,14.98334559,0.0002877,69.9993,298.8403,272.749,87.3339,3.8782e-05,3.7e-06,0.0,0 STARLINK-5908,1 55951U 23037AP  24080.01005387  .00000370  00000-0  38782-4 0  9990,2 55951  69.9993 298.8403 0002877 272.7490  87.3339 14.98334559 56523,6950.179,96.107,574.043,570.044,0.0
55951.0,STARLINK-5908,PAYLOAD,2024-03-20 21:04:14,14.98327562,0.0002841,69.9991,296.6523,273.5274,86.556,-3.6756e-05,-5.31e-06,0.0,0 STARLINK-5908,1 55951U 23037AP  24080.87794009 -.00000531  00000-0 -36756-4 0  9990,2 55951  69.9991 296.6523 0002841 273.5274  86.5560 14.98327562 56657,6950.2,96.107,574.04,570.091,0.0
55951.0,STARLINK-5908,PAYLOAD,2024-03-20 22:40:22,14.98326993,0.0002868,69.9991,296.4842,273.2772,86.8059,-4.0767e-05,-5.79e-06,0.0,0 STARLINK-5908,1 55951U 23037AP  24080.94470059 -.00000579  00000-0 -40767-4 0  9993,2 55951  69.9991 296.4842 0002868 273.2772  86.8059 14.98326993 56325,6950.202,96.107,574.061,570.074,0.0
55951.0,STARLINK-5908,PAYLOAD,2024-03-21 14:41:42,14.98332112,0.000291,69.9989,294.8013,272.1373,87.9453,-1.6507e-05,-2.9e-06,0.0,0 STARLINK-5908,1 55951U 23037AP  24081.61229687 -.00000290  00000-0 -16507-4 0  9992,2 55951  69.9989 294.8013 0002910 272.1373  87.9453 14.98332112 56428,6950.186,96.107,574.074,570.029,0.0
55951.0,STARLINK-5908,PAYLOAD,2024-03-21 21:06:14,14.98334531,0.0002874,69.9988,294.1275,272.9567,87.1263,1.8522e-05,1.28e-06,0.0,0 STARLINK-5908,1 55951U 23037AP  24081.87933398  .00000128  00000-0  18522-4 0  9998,2 55951  69.9988 294.1275 0002874 272.9567  87.1263 14.98334531 56802,6950.179,96.107,574.041,570.046,0.0
55951.0,STARLINK-5908,PAYLOAD,2024-03-21 22:42:22,14.98335567,0.0002856,69.9988,293.9594,272.6495,87.4337,3.0859e-05,2.75e-06,0.0,0 STARLINK-5908,1 55951U 23037AP  24081.94609277  .00000275  00000-0  30859-4 0  9992,2 55951  69.9988 293.9594 0002856 272.6495  87.4337 14.98335567 56478,6950.176,96.107,574.026,570.056,0.0
55951.0,STARLINK-5908,PAYLOAD,2024-03-22 14:43:43,14.98329382,0.0002783,69.9989,292.2769,271.0849,88.9991,6.8124e-05,7.2e-06,0.0,0 STARLINK-5908,1 55951U 23037AP  24082.61369401  .00000720  00000-0  68124-4 0  9990,2 55951  69.9989 292.2769 0002783 271.0849  88.9991 14.98329382 56571,6950.195,96.107,573.994,570.126,0.0
55951.0,STARLINK-5908,PAYLOAD,2024-03-22 21:08:15,14.98327892,0.0002807,69.9989,291.6033,271.3254,88.7583,0.00011606,1.292e-05,0.0,0 STARLINK-5908,1 55951U 23037AP  24082.88073355  .00001292  00000-0  11606-3 0  9996,2 55951  69.9989 291.6033 0002807 271.3254  88.7583 14.98327892 56959,6950.199,96.107,574.015,570.113,0.0
55951.0,STARLINK-5908,PAYLOAD,2024-03-22 22:44:23,14.98331021,0.0002788,69.9989,291.4351,271.4619,88.6221,7.8735e-05,8.47e-06,0.0,0 STARLINK-5908,1 55951U 23037AP  24082.94749252  .00000847  00000-0  78735-4 0  9991,2 55951  69.9989 291.4351 0002788 271.4619  88.6221 14.98331021 56625,6950.19,96.107,573.992,570.117,0.0
55951.0,STARLINK-5908,PAYLOAD,2024-03-23 21:10:17,14.98323377,0.0002569,69.9992,289.0782,258.3217,101.7654,-9.6008e-05,-1.238e-05,0.0,0 STARLINK-5908,1 55951U 23037AP  24083.88214255 -.00001238  00000-0 -96008-4 0  9995,2 55951  69.9992 289.0782 0002569 258.3217 101.7654 14.98323377 57101,6950.213,96.107,573.864,570.293,0.0
55951.0,STARLINK-5908,PAYLOAD,2024-03-24 13:11:37,14.98334292,0.0002826,69.9987,287.394,270.3269,89.7566,1.0595e-05,3.3e-07,0.0,0 STARLINK-5908,1 55951U 23037AP  24084.54973393  .00000033  00000-0  10595-4 0  9991,2 55951  69.9987 287.3940 0002826 270.3269  89.7566 14.98334292 57205,6950.18,96.107,574.009,570.08,0.0
55951.0,STARLINK-5908,PAYLOAD,2024-03-24 14:47:44,14.98335029,0.0002847,69.9987,287.2258,269.7868,90.2965,1.8115e-05,1.23e-06,0.0,0 STARLINK-5908,1 55951U 23037AP  24084.61649300  .00000123  00000-0  18115-4 0  9993,2 55951  69.9987 287.2258 0002847 269.7868  90.2965 14.98335029 56877,6950.177,96.107,574.021,570.064,0.0
55951.0,STARLINK-5908,PAYLOAD,2024-03-24 22:48:25,14.98337509,0.000293,69.9984,286.3842,267.9694,92.113,6.117e-05,6.37e-06,0.0,0 STARLINK-5908,1 55951U 23037AP  24084.95028963  .00000637  00000-0  61170-4 0  9995,2 55951  69.9984 286.3842 0002930 267.9694  92.1130 14.98337509 56929,6950.17,96.107,574.071,569.998,0.0
55951.0,STARLINK-5908,PAYLOAD,2024-03-25 21:14:18,14.98320902,0.0002751,69.9986,284.0261,265.913,94.1715,4.8193e-05,4.82e-06,0.0,0 STARLINK-5908,1 55951U 23037AP  24085.88494083  .00000482  00000-0  48193-4 0  9996,2 55951  69.9986 284.0261 0002751 265.9130  94.1715 14.98320902 57409,6950.221,96.108,573.998,570.174,0.0
55951.0,STARLINK-5908,PAYLOAD,2024-03-25 22:50:26,14.98321638,0.0002722,69.9987,283.8579,265.3703,94.7145,5.5445e-05,5.68e-06,0.0,0 STARLINK-5908,1 55951U 23037AP  24085.95170052  .00000568  00000-0  55445-4 0  9994,2 55951  69.9987 283.8579 0002722 265.3703  94.7145 14.98321638 57070,6950.219,96.108,573.976,570.192,0.0
55951.0,STARLINK-5908,PAYLOAD,2024-03-26 14:51:47,14.98326472,0.0003016,69.9986,282.1751,268.2937,91.7876,-3.092e-05,-4.62e-06,0.0,0 STARLINK-5908,1 55951U 23037AP  24086.61930050 -.00000462  00000-0 -30920-4 0  9996,2 55951  69.9986 282.1751 0003016 268.2937  91.7876 14.98326472 57171,6950.204,96.107,574.165,569.973,0.0
55951.0,STARLINK-5908,PAYLOAD,2024-03-26 21:16:19,14.98329172,0.0003018,69.9984,281.5025,268.3326,91.7488,-4.2807e-05,-6.04e-06,0.0,0 STARLINK-5908,1 55951U 23037AP  24086.88633944 -.00000604  00000-0 -42807-4 0  9992,2 55951  69.9984 281.5025 0003018 268.3326  91.7488 14.98329172 57552,6950.195,96.107,574.158,569.963,0.0
55951.0,STARLINK-5908,PAYLOAD,2024-03-26 22:52:27,14.98329535,0.0003003,69.9985,281.3342,267.7518,92.3297,-3.404e-05,-4.99e-06,0.0,0 STARLINK-5908,1 55951U 23037AP  24086.95309900 -.00000499  00000-0 -34040-4 0  9994,2 55951  69.9985 281.3342 0003003 267.7518  92.3297 14.98329535 57225,6950.194,96.107,574.146,569.972,0.0
55951.0,STARLINK-5908,PAYLOAD,2024-03-27 14:53:47,14.9833233,0.0003107,69.9983,279.6509,268.4722,91.6081,6.8949e-05,7.3e-06,0.0,0 STARLINK-5908,1 55951U 23037AP  24087.62069391  .00000730  00000-0  68949-4 0  9997,2 55951  69.9983 279.6509 0003107 268.4722  91.6081 14.98332330 57329,6950.186,96.107,574.21,569.891,0.0
55951.0,STARLINK-5908,PAYLOAD,2024-03-27 21:18:20,14.98332421,0.0003013,69.9987,278.9775,266.9438,93.1376,0.00012192,1.362e-05,0.0,0 STARLINK-5908,1 55951U 23037AP  24087.88773200  .00001362  00000-0  12192-3 0  9996,2 55951  69.9987 278.9775 0003013 266.9438  93.1376 14.98332421 57700,6950.185,96.107,574.144,569.956,0.0
55951.0,STARLINK-5908,PAYLOAD,2024-03-28 05:19:00,14.98336537,0.0003087,69.9988,278.1353,268.9964,91.0841,-3.4095e-05,-5e-06,0.0,0 STARLINK-5908,1 55951U 23037AP  24088.22153243 -.00000500  00000-0 -34095-4 0  9996,2 55951  69.9988 278.1353 0003087 268.9964  91.0841 14.98336537 57416,6950.173,96.107,574.183,569.892,0.0
55951.0,STARLINK-5908,PAYLOAD,2024-03-28 21:20:21,14.98328053,0.0003003,69.999,276.4522,270.819,89.2625,5.9061e-05,6.12e-06,0.0,0 STARLINK-5908,1 55951U 23037AP  24088.88913554  .00000612  00000-0  59061-4 0  9999,2 55951  69.9990 276.4522 0003003 270.8190  89.2625 14.98328053 57850,6950.199,96.107,574.151,569.977,0.0
55951.0,STARLINK-5908,PAYLOAD,2024-03-28 22:56:29,14.98333178,0.0002938,69.999,276.2842,269.531,90.5513,-1.089e-06,-1.06e-06,0.0,0 STARLINK-5908,1 55951U 23037AP  24088.95589369 -.00000106  00000-0 -10890-5 0  9998,2 55951  69.9990 276.2842 0002938 269.5310  90.5513 14.98333178 57527,6950.183,96.107,574.09,570.006,0.0
55951.0,STARLINK-5908,PAYLOAD,2024-03-29 11:45:33,14.98334724,0.0002892,69.9997,274.9376,269.6769,90.4058,-2.846e-05,-4.33e-06,0.0,0 STARLINK-5908,1 55951U 23037AP  24089.48997324 -.00000433  00000-0 -28460-4 0  9995,2 55951  69.9997 274.9376 0002892 269.6769  90.4058 14.98334724 57609,6950.178,96.107,574.053,570.033,0.0
55951.0,STARLINK-5908,PAYLOAD,2024-03-29 21:22:22,14.98334153,0.0002917,69.9995,273.9277,268.935,91.1475,-3.2924e-05,-4.86e-06,0.0,0 STARLINK-5908,1 55951U 23037AP  24089.89053244 -.00000486  00000-0 -32924-4 0  9992,2 55951  69.9995 273.9277 0002917 268.9350  91.1475 14.98334153 57665,6950.18,96.107,574.072,570.018,0.0
55951.0,STARLINK-5908,PAYLOAD,2024-03-30 05:23:02,14.98333421,0.0002926,69.9992,273.0862,271.6588,88.4236,-0.00011185,-1.427e-05,0.0,0 STARLINK-5908,1 55951U 23037AP  24090.22433413 -.00001427  00000-0 -11185-3 0  9992,2 55951  69.9992 273.0862 0002926 271.6588  88.4236 14.98333421 58052,6950.182,96.107,574.081,570.014,0.0
55951.0,STARLINK-5908,PAYLOAD,2024-03-30 13:23:43,14.98325227,0.0002915,69.9994,272.2447,270.9118,89.1707,-5.8575e-05,-7.92e-06,0.0,0 STARLINK-5908,1 55951U 23037AP  24090.55813874 -.00000792  00000-0 -58575-4 0  9990,2 55951  69.9994 272.2447 0002915 270.9118  89.1707 14.98325227 57766,6950.208,96.107,574.099,570.047,0.0
